Satellite: OKEAN-4
Catalog number: 23317
Epoch time:      11132.87790592
Element set:     552
Inclination:      082.5409 deg
RA of node:       046.1077 deg
Eccentricity:    0.0020328
Arg of perigee:   233.2609 deg
Mean anomaly:     126.6738 deg
Mean motion:   14.83058120 rev/day
Decay rate:       6.44e-06 rev/day^2
Epoch rev:           89531
Checksum:              295

Satellite: NOAA-14
Catalog number: 23455
Epoch time:      11131.94307686
Element set:    0488
Inclination:      098.8529 deg
RA of node:       214.9376 deg
Eccentricity:    0.0010004
Arg of perigee:   027.1883 deg
Mean anomaly:     332.9806 deg
Mean motion:   14.13817793 rev/day
Decay rate:        1.0e-07 rev/day^2
Epoch rev:           84395
Checksum:              317

Satellite: NOAA-15
Catalog number: 25338
Epoch time:      11131.79150608
Element set:    0811
Inclination:      098.6518 deg
RA of node:       118.4370 deg
Eccentricity:    0.0010275
Arg of perigee:   193.5564 deg
Mean anomaly:     166.5350 deg
Mean motion:   14.24911099 rev/day
Decay rate:       1.29e-06 rev/day^2
Epoch rev:           67554
Checksum:              304

Satellite: RESURS
Catalog number: 25394
Epoch time:      11132.55917945
Element set:     793
Inclination:      098.2998 deg
RA of node:       137.5452 deg
Eccentricity:    0.0001773
Arg of perigee:   016.8759 deg
Mean anomaly:     343.2477 deg
Mean motion:   14.24232584 rev/day
Decay rate:        3.0e-08 rev/day^2
Epoch rev:           66723
Checksum:              324

Satellite: FENGYUN1
Catalog number: 25730
Epoch time:      11131.94551681
Element set:    0336
Inclination:      098.8179 deg
RA of node:       093.9418 deg
Eccentricity:    0.0025794
Arg of perigee:   052.2907 deg
Mean anomaly:     308.0591 deg
Mean motion:   14.08608974 rev/day
Decay rate:       3.49e-06 rev/day^2
Epoch rev:           61796
Checksum:              331

Satellite: OKEAN-0
Catalog number: 25860
Epoch time:      11131.97446036
Element set:    0308
Inclination:      097.8810 deg
RA of node:       099.4239 deg
Eccentricity:    0.0001875
Arg of perigee:   084.3905 deg
Mean anomaly:     275.7516 deg
Mean motion:   14.73776639 rev/day
Decay rate:       3.49e-06 rev/day^2
Epoch rev:           63532
Checksum:              328

Satellite: NOAA-16
Catalog number: 26536
Epoch time:      11131.74140384
Element set:    0293
Inclination:      099.1418 deg
RA of node:       161.5392 deg
Eccentricity:    0.0011262
Arg of perigee:   132.1670 deg
Mean anomaly:     228.0457 deg
Mean motion:   14.12614944 rev/day
Decay rate:      -1.74e-06 rev/day^2
Epoch rev:           54821
Checksum:              279

Satellite: NOAA-17
Catalog number: 27453
Epoch time:      11131.71583535
Element set:    0287
Inclination:      098.3812 deg
RA of node:       173.0942 deg
Eccentricity:    0.0010719
Arg of perigee:   254.9576 deg
Mean anomaly:     105.0416 deg
Mean motion:   14.24269938 rev/day
Decay rate:       2.15e-06 rev/day^2
Epoch rev:           46146
Checksum:              307

Satellite: NOAA-18
Catalog number: 28654
Epoch time:      11131.80585174
Element set:    0767
Inclination:      098.9930 deg
RA of node:       082.8695 deg
Eccentricity:    0.0013729
Arg of perigee:   204.5222 deg
Mean anomaly:     155.5305 deg
Mean motion:   14.11470328 rev/day
Decay rate:       -4.7e-07 rev/day^2
Epoch rev:           30779
Checksum:              318

Satellite: NOAA-19
Catalog number: 33591
Epoch time:      11131.79507329
Element set:    0958
Inclination:      098.8246 deg
RA of node:       072.5647 deg
Eccentricity:    0.0015143
Arg of perigee:   079.3953 deg
Mean anomaly:     280.8913 deg
Mean motion:   14.11163841 rev/day
Decay rate:       1.06e-06 rev/day^2
Epoch rev:           11625
Checksum:              313

/EX
SB KEPS @ AMSAT  $ORB11133.M
Orbital Elements  11133.MISC

HR AMSAT ORBITAL ELEMENTS FOR MANNED AND MISCELLANEOUS SATELLITES
FROM WA5QGD FORT WORTH,TX May 13, 2011
Send Subscribe/unsubscribe to KEPS at http://www.amsat.org/mailman/listinfo/keps
BID: ORB11133.M
TO ALL RADIO AMATEURS BT

Satellite: HUBBLE
Catalog number: 20580
Epoch time:      11131.68985533
Element set:     763
Inclination:      028.4700 deg
RA of node:       254.8583 deg
Eccentricity:    0.0003590
Arg of perigee:   090.6325 deg
Mean anomaly:     269.4677 deg
Mean motion:   15.01347649 rev/day
Decay rate:      1.322e-05 rev/day^2
Epoch rev:           95416
Checksum:              305

Satellite: ISS
Catalog number: 25544
Epoch time:      11133.06519513
Element set:     345
Inclination:      051.6483 deg
RA of node:       341.0789 deg
Eccentricity:    0.0002453
Arg of perigee:   268.0420 deg
Mean anomaly:     239.1666 deg
Mean motion:   15.74895012 rev/day
Decay rate:     2.5120e-04 rev/day^2
Epoch rev:           71537
Checksum:              281

Satellite: CO-58
Catalog number: 28895
Epoch time:      11132.43011153
Element set:     871
Inclination:      097.9711 deg
RA of node:       010.1906 deg
Eccentricity:    0.0017206
Arg of perigee:   336.7598 deg
Mean anomaly:     023.2794 deg
Mean motion:   14.60091459 rev/day
Decay rate:       4.05e-06 rev/day^2
Epoch rev:           29502
Checksum:              298

Satellite: FALCON
Catalog number: 30776
Epoch time:      11132.54287979
Element set:      83
Inclination:      035.4346 deg
RA of node:       203.7037 deg
Eccentricity:    0.0000456
Arg of perigee:   222.8017 deg
Mean anomaly:     137.2665 deg
Mean motion:   15.04564829 rev/day
Decay rate:      2.180e-05 rev/day^2
Epoch rev:           22967
Checksum:              296

Satellite: MAST
Catalog number: 31126
Epoch time:      11132.86404719
Element set:     156
Inclination:      097.8974 deg
RA of node:       162.0806 deg
Eccentricity:    0.0092844
Arg of perigee:   280.7530 deg
Mean anomaly:     078.3224 deg
Mean motion:   14.53738662 rev/day
Decay rate:       1.59e-06 rev/day^2
Epoch rev:           21595
Checksum:              308

Satellite: CAPE1
Catalog number: 31130
Epoch time:      11132.54174588
Element set:     173
Inclination:      097.8994 deg
RA of node:       158.5962 deg
Eccentricity:    0.0101345
Arg of perigee:   292.3914 deg
Mean anomaly:     066.6527 deg
Mean motion:   14.52379776 rev/day
Decay rate:       4.83e-06 rev/day^2
Epoch rev:           21546
Checksum:              321

Satellite: COMPASS
Catalog number: 32787
Epoch time:      11132.63885900
Element set:     983
Inclination:      097.8490 deg
RA of node:       197.1127 deg
Eccentricity:    0.0014590
Arg of perigee:   294.2794 deg
Mean anomaly:     065.6865 deg
Mean motion:   14.82379181 rev/day
Decay rate:      1.195e-05 rev/day^2
Epoch rev:           16429
Checksum:              341

