OKEAN-4
1 23317U 94066A   11132.87790592  .00000644  00000-0  76007-4 0  5529
2 23317 082.5409 046.1077 0020328 233.2609 126.6738 14.83058120895312
NOAA-14
1 23455U 94089A   11131.94307686  .00000010  00000-0  28440-4 0 04885
2 23455 098.8529 214.9376 0010004 027.1883 332.9806 14.13817793843952
NOAA-15
1 25338U 98030A   11131.79150608  .00000129  00000-0  73774-4 0 08111
2 25338 098.6518 118.4370 0010275 193.5564 166.5350 14.24911099675545
RESURS
1 25394U 98043A   11132.55917945  .00000003  00000-0  19109-4 0  7939
2 25394 098.2998 137.5452 0001773 016.8759 343.2477 14.24232584667230
FENGYUN1
1 25730U 99025A   11131.94551681  .00000349  00000-0  22720-3 0 03365
2 25730 098.8179 093.9418 0025794 052.2907 308.0591 14.08608974617969
OKEAN-0
1 25860U 99039A   11131.97446036  .00000349  00000-0  60808-4 0 03083
2 25860 097.8810 099.4239 0001875 084.3905 275.7516 14.73776639635327
NOAA-16
1 26536U 00055A   11131.74140384 -.00000174  00000-0 -69045-4 0 02939
2 26536 099.1418 161.5392 0011262 132.1670 228.0457 14.12614944548219
NOAA-17
1 27453U 02032A   11131.71583535  .00000215  00000-0  11118-3 0 02875
2 27453 098.3812 173.0942 0010719 254.9576 105.0416 14.24269938461462
NOAA-18
1 28654U 05018A   11131.80585174 -.00000047  00000-0 -12949-5 0 07670
2 28654 098.9930 082.8695 0013729 204.5222 155.5305 14.11470328307793
NOAA-19
1 33591U 09005A   11131.79507329  .00000106  00000-0  82787-4 0 09582
2 33591 098.8246 072.5647 0015143 079.3953 280.8913 14.11163841116257
HUBBLE
1 20580U 90037B   11131.68985533  .00001322  00000-0  87520-4 0  7631
2 20580 028.4700 254.8583 0003590 090.6325 269.4677 15.01347649954161
ISS
1 25544U 98067A   11133.06519513  .00025120  00000-0  16978-3 0  3458
2 25544 051.6483 341.0789 0002453 268.0420 239.1666 15.74895012715375
CO-58
1 28895U 05043F   11132.43011153  .00000405  00000-0  93370-4 0  8714
2 28895 097.9711 010.1906 0017206 336.7598 023.2794 14.60091459295026
FALCON
1 30776U 07006E   11132.54287979  .00002180  00000-0  15524-3 0   830
2 30776 035.4346 203.7037 0000456 222.8017 137.2665 15.04564829229679
MAST
1 31126U 07012K   11132.86404719  .00000159  00000-0  46449-4 0  1561
2 31126 097.8974 162.0806 0092844 280.7530 078.3224 14.53738662215957
CAPE1
1 31130U 07012P   11132.54174588  .00000483  00000-0  12165-3 0  1735
2 31130 097.8994 158.5962 0101345 292.3914 066.6527 14.52379776215467
COMPASS
1 32787U 08021E   11132.63885900  .00001195  00000-0  15568-3 0  9832
2 32787 097.8490 197.1127 0014590 294.2794 065.6865 14.82379181164292
